{
  "type": "FeatureCollection",
  "features": [
    {
      "type": "Feature",
      "properties": {
        "norad_id": 22490,
        "name": "SCD 1",
        "group": "resource",
        "lat": -19.913103260407937,
        "lon": 169.06384815765597,
        "alt_km": 723.1593558898294,
        "timestamp": "2025-12-09T14:52:25.822179+00:00",
        "meta_object_name": "SCD 1",
        "meta_object_id": "1993-009B",
        "meta_epoch": "2025-12-09T04:23:05.110656",
        "meta_mean_motion": 14.45994752,
        "meta_eccentricity": 0.00417245,
        "meta_inclination": 24.9704,
        "meta_ra_of_asc_node": 300.645,
        "meta_arg_of_pericenter": 287.2095,
        "meta_mean_anomaly": 187.2931,
        "meta_ephemeris_type": 0,
        "meta_classification_type": "U",
        "meta_norad_cat_id": 22490,
        "meta_element_set_no": 999,
        "meta_rev_at_epoch": 73358,
        "meta_bstar": 0.00014848469,
        "meta_mean_motion_dot": 7.29e-06,
        "meta_mean_motion_ddot": 0,
        "tle_line1": "1 22490U 93009B   25343.18269804  .00000729  00000+0  14848-3 0  9998",
        "tle_line2": "2 22490  24.9704 300.6450 0041724 287.2095 187.2931 14.45994752733581"
      },
      "geometry": {
        "type": "Point",
        "coordinates": [
          169.06384815765597,
          -19.913103260407937
        ]
      }
    },
    {
      "type": "Feature",
      "properties": {
        "norad_id": 25397,
        "name": "TECHSAT 1B (GO-32)",
        "group": "resource",
        "lat": 19.121132756089025,
        "lon": -36.3870098384157,
        "alt_km": 809.5786287397832,
        "timestamp": "2025-12-09T14:52:25.822205+00:00",
        "meta_object_name": "TECHSAT 1B (GO-32)",
        "meta_object_id": "1998-043D",
        "meta_epoch": "2025-12-08T21:55:27.338304",
        "meta_mean_motion": 14.24375251,
        "meta_eccentricity": 0.0002145,
        "meta_inclination": 98.9915,
        "meta_ra_of_asc_node": 326.0373,
        "meta_arg_of_pericenter": 63.4685,
        "meta_mean_anomaly": 296.6713,
        "meta_ephemeris_type": 0,
        "meta_classification_type": "U",
        "meta_norad_cat_id": 25397,
        "meta_element_set_no": 999,
        "meta_rev_at_epoch": 42424,
        "meta_bstar": 8.5481e-05,
        "meta_mean_motion_dot": 1.51e-06,
        "meta_mean_motion_ddot": 0,
        "tle_line1": "1 25397U 98043D   25342.91351086  .00000151  00000+0  85481-4 0  9995",
        "tle_line2": "2 25397  98.9915 326.0373 0002145  63.4685 296.6713 14.24375251424241"
      },
      "geometry": {
        "type": "Point",
        "coordinates": [
          -36.3870098384157,
          19.121132756089025
        ]
      }
    },
    {
      "type": "Feature",
      "properties": {
        "norad_id": 25504,
        "name": "SCD 2",
        "group": "resource",
        "lat": -24.948055602300457,
        "lon": 74.1724584323392,
        "alt_km": 729.5594710331707,
        "timestamp": "2025-12-09T14:52:25.822221+00:00",
        "meta_object_name": "SCD 2",
        "meta_object_id": "1998-060A",
        "meta_epoch": "2025-12-08T21:41:28.157568",
        "meta_mean_motion": 14.45419789,
        "meta_eccentricity": 0.0016589,
        "meta_inclination": 24.9931,
        "meta_ra_of_asc_node": 165.5501,
        "meta_arg_of_pericenter": 272.5598,
        "meta_mean_anomaly": 227.2256,
        "meta_ephemeris_type": 0,
        "meta_classification_type": "U",
        "meta_norad_cat_id": 25504,
        "meta_element_set_no": 999,
        "meta_rev_at_epoch": 43276,
        "meta_bstar": 0.00010877,
        "meta_mean_motion_dot": 5.72e-06,
        "meta_mean_motion_ddot": 0,
        "tle_line1": "1 25504U 98060A   25342.90379812  .00000572  00000+0  10877-3 0  9993",
        "tle_line2": "2 25504  24.9931 165.5501 0016589 272.5598 227.2256 14.45419789432766"
      },
      "geometry": {
        "type": "Point",
        "coordinates": [
          74.1724584323392,
          -24.948055602300457
        ]
      }
    },
    {
      "type": "Feature",
      "properties": {
        "norad_id": 25757,
        "name": "DLR-TUBSAT",
        "group": "resource",
        "lat": -73.44631661058473,
        "lon": -1.1314848270367615,
        "alt_km": 723.8254479903035,
        "timestamp": "2025-12-09T14:52:25.822235+00:00",
        "meta_object_name": "DLR-TUBSAT",
        "meta_object_id": "1999-029B",
        "meta_epoch": "2025-12-09T05:18:08.236224",
        "meta_mean_motion": 14.52355381,
        "meta_eccentricity": 0.00137004,
        "meta_inclination": 98.656,
        "meta_ra_of_asc_node": 327.6261,
        "meta_arg_of_pericenter": 203.7718,
        "meta_mean_anomaly": 156.2845,
        "meta_ephemeris_type": 0,
        "meta_classification_type": "U",
        "meta_norad_cat_id": 25757,
        "meta_element_set_no": 999,
        "meta_rev_at_epoch": 40567,
        "meta_bstar": 6.8755033e-05,
        "meta_mean_motion_dot": 2.32e-06,
        "meta_mean_motion_ddot": 0,
        "tle_line1": "1 25757U 99029B   25343.22092866  .00000232  00000+0  68755-4 0  9998",
        "tle_line2": "2 25757  98.6560 327.6261 0013700 203.7718 156.2845 14.52355381405678"
      },
      "geometry": {
        "type": "Point",
        "coordinates": [
          -1.1314848270367615,
          -73.44631661058473
        ]
      }
    },
    {
      "type": "Feature",
      "properties": {
        "norad_id": 25994,
        "name": "TERRA",
        "group": "resource",
        "lat": -70.05371107956091,
        "lon": -167.3060980651328,
        "alt_km": 699.7793349228932,
        "timestamp": "2025-12-09T14:52:25.822247+00:00",
        "meta_object_name": "TERRA",
        "meta_object_id": "1999-068A",
        "meta_epoch": "2025-12-09T07:28:05.081952",
        "meta_mean_motion": 14.60896422,
        "meta_eccentricity": 0.00035764,
        "meta_inclination": 97.9753,
        "meta_ra_of_asc_node": 35.1215,
        "meta_arg_of_pericenter": 101.1751,
        "meta_mean_anomaly": 328.5352,
        "meta_ephemeris_type": 0,
        "meta_classification_type": "U",
        "meta_norad_cat_id": 25994,
        "meta_element_set_no": 999,
        "meta_rev_at_epoch": 38188,
        "meta_bstar": 0.00020414616,
        "meta_mean_motion_dot": 9.54e-06,
        "meta_mean_motion_ddot": 0,
        "tle_line1": "1 25994U 99068A   25343.31116993  .00000954  00000+0  20415-3 0  9993",
        "tle_line2": "2 25994  97.9753  35.1215 0003576 101.1751 328.5352 14.60896422381883"
      },
      "geometry": {
        "type": "Point",
        "coordinates": [
          -167.3060980651328,
          -70.05371107956091
        ]
      }
    },
    {
      "type": "Feature",
      "properties": {
        "norad_id": 27004,
        "name": "MAROC-TUBSAT",
        "group": "resource",
        "lat": 3.355487023416043,
        "lon": -27.409986806492835,
        "alt_km": 1001.491779157368,
        "timestamp": "2025-12-09T14:52:25.822274+00:00",
        "meta_object_name": "MAROC-TUBSAT",
        "meta_object_id": "2001-056D",
        "meta_epoch": "2025-12-09T06:07:21.111744",
        "meta_mean_motion": 13.70252639,
        "meta_eccentricity": 0.00190891,
        "meta_inclination": 99.7912,
        "meta_ra_of_asc_node": 151.6391,
        "meta_arg_of_pericenter": 269.4188,
        "meta_mean_anomaly": 269.4893,
        "meta_ephemeris_type": 0,
        "meta_classification_type": "U",
        "meta_norad_cat_id": 27004,
        "meta_element_set_no": 999,
        "meta_rev_at_epoch": 20017,
        "meta_bstar": 4.661016e-05,
        "meta_mean_motion_dot": -6e-08,
        "meta_mean_motion_ddot": 0,
        "tle_line1": "1 27004U 01056D   25343.25510546 -.00000006  00000+0  46610-4 0  9997",
        "tle_line2": "2 27004  99.7912 151.6391 0019089 269.4188 269.4893 13.70252639200172"
      },
      "geometry": {
        "type": "Point",
        "coordinates": [
          -27.409986806492835,
          3.355487023416043
        ]
      }
    },
    {
      "type": "Feature",
      "properties": {
        "norad_id": 27424,
        "name": "AQUA",
        "group": "resource",
        "lat": 62.3301666420644,
        "lon": 140.823411074583,
        "alt_km": 680.6112132687431,
        "timestamp": "2025-12-09T14:52:25.822288+00:00",
        "meta_object_name": "AQUA",
        "meta_object_id": "2002-022A",
        "meta_epoch": "2025-12-09T08:20:03.600096",
        "meta_mean_motion": 14.61797242,
        "meta_eccentricity": 9.593e-05,
        "meta_inclination": 98.4034,
        "meta_ra_of_asc_node": 304.1713,
        "meta_arg_of_pericenter": 114.1037,
        "meta_mean_anomaly": 9.2369,
        "meta_ephemeris_type": 0,
        "meta_classification_type": "U",
        "meta_norad_cat_id": 27424,
        "meta_element_set_no": 999,
        "meta_rev_at_epoch": 25553,
        "meta_bstar": 0.00040710338,
        "meta_mean_motion_dot": 1.983e-05,
        "meta_mean_motion_ddot": 0,
        "tle_line1": "1 27424U 02022A   25343.34726389  .00001983  00000+0  40710-3 0  9999",
        "tle_line2": "2 27424  98.4034 304.1713 0000959 114.1037   9.2369 14.61797242255530"
      },
      "geometry": {
        "type": "Point",
        "coordinates": [
          140.823411074583,
          62.3301666420644
        ]
      }
    }
  ]
}